[{"OBJECT_NAME":"NUSTAR","OBJECT_ID":"2012-031A","EPOCH":"2026-03-10T00:00:02.999808","MEAN_MOTION":15.07728841,"ECCENTRICITY":0.00071224,"INCLINATION":6.0266,"RA_OF_ASC_NODE":57.5732,"ARG_OF_PERICENTER":70.6924,"MEAN_ANOMALY":331.0724,"EPHEMERIS_TYPE":0,"CLASSIFICATION_TYPE":"U","NORAD_CAT_ID":38358,"ELEMENT_SET_NO":999,"REV_AT_EPOCH":130,"BSTAR":0.0011080621,"MEAN_MOTION_DOT":0.00018332,"MEAN_MOTION_DDOT":0},{"OBJECT_NAME":"STARLINK-4667","OBJECT_ID":"2022-107H","EPOCH":"2026-03-09T22:49:37.939584","MEAN_MOTION":15.08846316,"ECCENTRICITY":0.00013024,"INCLINATION":53.2162,"RA_OF_ASC_NODE":227.9619,"ARG_OF_PERICENTER":110.5824,"MEAN_ANOMALY":249.5308,"EPHEMERIS_TYPE":0,"CLASSIFICATION_TYPE":"U","NORAD_CAT_ID":53707,"ELEMENT_SET_NO":999,"REV_AT_EPOCH":19510,"BSTAR":-5.0271747e-5,"MEAN_MOTION_DOT":-1.088e-5,"MEAN_MOTION_DDOT":0}]
